NORAD_CAT_ID,OBJECT_NAME,OBJECT_TYPE,EPOCH,MEAN_MOTION,ECCENTRICITY,INCLINATION,RA_OF_ASC_NODE,ARG_OF_PERICENTER,MEAN_ANOMALY,BSTAR,MEAN_MOTION_DOT,MEAN_MOTION_DDOT,TLE_LINE0,TLE_LINE1,TLE_LINE2,SEMIMAJOR_AXIS,PERIOD,APOGEE,PERIGEE,DECAYED
51728.0,STARLINK-3448,PAYLOAD,2024-01-21 11:39:38,15.08858508,0.0001254,53.215,212.6144,92.159,267.9546,0.00049254,7.563e-05,0.0,0 STARLINK-3448,1 51728U 22016Q   24021.48585656  .00007563  00000-0  49254-3 0  9998,2 51728  53.2150 212.6144 0001254  92.1590 267.9546 15.08858508107217,6917.824,95.436,540.556,538.821,0.0
51728.0,STARLINK-3448,PAYLOAD,2024-01-21 18:01:09,15.0887379,0.0001267,53.2147,211.4253,89.6969,270.4168,0.00068727,0.00010677,0.0,0 STARLINK-3448,1 51728U 22016Q   24021.75081015  .00010677  00000-0  68727-3 0  9994,2 51728  53.2147 211.4253 0001267  89.6969 270.4168 15.08873790106124,6917.777,95.435,540.519,538.766,0.0
51728.0,STARLINK-3448,PAYLOAD,2024-01-21 22:47:18,15.08881691,0.0001269,53.2146,210.533,91.7085,268.4052,0.00071997,0.00011202,0.0,0 STARLINK-3448,1 51728U 22016Q   24021.94952398  .00011202  00000-0  71997-3 0  9994,2 51728  53.2146 210.5330 0001269  91.7085 268.4052 15.08881691107280,6917.753,95.435,540.496,538.74,0.0
51728.0,STARLINK-3448,PAYLOAD,2024-01-22 11:30:23,15.08857604,0.0001599,53.2147,208.154,77.9444,282.1728,-6.8092e-05,-1.372e-05,0.0,0 STARLINK-3448,1 51728U 22016Q   24022.47944328 -.00001372  00000-0 -68092-4 0  9999,2 51728  53.2147 208.1540 0001599  77.9444 282.1728 15.08857604107367,6917.827,95.436,540.798,538.585,0.0
51728.0,STARLINK-3448,PAYLOAD,2024-01-22 17:51:56,15.08848179,0.0001183,53.2149,206.964,85.9374,274.1753,-0.0001176,-2.159e-05,0.0,0 STARLINK-3448,1 51728U 22016Q   24022.74440299 -.00002159  00000-0 -11760-3 0  9990,2 51728  53.2149 206.9640 0001183  85.9374 274.1753 15.08848179106271,6917.855,95.437,540.539,538.902,0.0
51728.0,STARLINK-3448,PAYLOAD,2024-01-23 19:18:06,15.08842187,0.0001252,53.2144,202.2053,89.2277,270.8858,0.00024437,3.604e-05,0.0,0 STARLINK-3448,1 51728U 22016Q   24023.80424557  .00003604  00000-0  24437-3 0  9996,2 51728  53.2144 202.2053 0001252  89.2277 270.8858 15.08842187106439,6917.874,95.437,540.605,538.873,0.0
51728.0,STARLINK-3448,PAYLOAD,2024-01-24 19:08:52,15.08891684,0.0001367,53.2141,197.7449,90.1513,269.9635,0.0013377,0.00021096,0.0,0 STARLINK-3448,1 51728U 22016Q   24024.79783315  .00021096  00000-0  13377-2 0  9990,2 51728  53.2141 197.7449 0001367  90.1513 269.9635 15.08891684107714,6917.722,95.434,540.533,538.642,0.0
51728.0,STARLINK-3448,PAYLOAD,2024-01-25 17:24:16,15.08845657,0.0001607,53.2177,193.5719,96.9903,263.1272,-6.3054e-06,-3.88e-06,0.0,0 STARLINK-3448,1 51728U 22016Q   24025.72519566 -.00000388  00000-0 -63054-5 0  9992,2 51728  53.2177 193.5719 0001607  96.9903 263.1272 15.08845657107858,6917.863,95.437,540.84,538.616,0.0
51728.0,STARLINK-3448,PAYLOAD,2024-01-25 22:10:26,15.08836831,0.000153,53.2166,192.6845,87.6474,272.4693,-0.00011628,-2.138e-05,0.0,0 STARLINK-3448,1 51728U 22016Q   24025.92392047 -.00002138  00000-0 -11628-3 0  9990,2 51728  53.2166 192.6845 0001530  87.6474 272.4693 15.08836831106753,6917.89,95.438,540.814,538.697,0.0
51728.0,STARLINK-3448,PAYLOAD,2024-01-26 14:04:17,15.08848606,0.000168,53.2169,189.7111,124.6223,235.4928,-0.00037994,-6.331e-05,0.0,0 STARLINK-3448,1 51728U 22016Q   24026.58631730 -.00006331  00000-0 -37994-3 0  9991,2 51728  53.2169 189.7111 0001680 124.6223 235.4928 15.08848606106853,6917.854,95.437,540.881,538.557,0.0
51728.0,STARLINK-3448,PAYLOAD,2024-01-26 17:15:04,15.08848116,0.000157,53.217,189.1157,104.3196,255.797,-0.00034068,-5.707e-05,0.0,0 STARLINK-3448,1 51728U 22016Q   24026.71879827 -.00005707  00000-0 -34068-3 0  9992,2 51728  53.2170 189.1157 0001570 104.3196 255.7970 15.08848116108008,6917.856,95.437,540.807,538.634,0.0
51728.0,STARLINK-3448,PAYLOAD,2024-01-27 13:55:05,15.08833563,0.0001473,53.2171,185.2528,96.2598,263.8562,0.00017099,2.434e-05,0.0,0 STARLINK-3448,1 51728U 22016Q   24027.57992752  .00002434  00000-0  17099-3 0  9997,2 51728  53.2171 185.2528 0001473  96.2598 263.8562 15.08833563107001,6917.9,95.438,540.784,538.746,0.0
51728.0,STARLINK-3448,PAYLOAD,2024-01-27 17:05:52,15.08830918,0.0001429,53.2163,184.6583,96.9125,263.203,0.00015896,2.242e-05,0.0,0 STARLINK-3448,1 51728U 22016Q   24027.71241172  .00002242  00000-0  15896-3 0  9996,2 51728  53.2163 184.6583 0001429  96.9125 263.2030 15.08830918108152,6917.908,95.438,540.762,538.785,0.0
51728.0,STARLINK-3448,PAYLOAD,2024-01-28 13:45:53,15.08834136,0.0001334,53.2167,180.7953,91.2739,268.8406,7.5472e-05,9.13e-06,0.0,0 STARLINK-3448,1 51728U 22016Q   24028.57353590  .00000913  00000-0  75472-4 0  9999,2 51728  53.2167 180.7953 0001334  91.2739 268.8406 15.08834136107151,6917.898,95.438,540.686,538.84,0.0
51728.0,STARLINK-3448,PAYLOAD,2024-01-28 16:56:39,15.08838628,0.0001438,53.217,180.2018,94.0415,266.0742,0.00011319,1.514e-05,0.0,0 STARLINK-3448,1 51728U 22016Q   24028.70601252  .00001514  00000-0  11319-3 0  9992,2 51728  53.2170 180.2018 0001438  94.0415 266.0742 15.08838628107174,6917.885,95.438,540.744,538.755,0.0
51728.0,STARLINK-3448,PAYLOAD,2024-01-29 08:50:30,15.08837492,0.0001508,53.2175,177.2289,95.7839,264.3325,0.00017969,2.573e-05,0.0,0 STARLINK-3448,1 51728U 22016Q   24029.36841317  .00002573  00000-0  17969-3 0  9996,2 51728  53.2175 177.2289 0001508  95.7839 264.3325 15.08837492108404,6917.888,95.438,540.796,538.71,0.0
51728.0,STARLINK-3448,PAYLOAD,2024-01-30 13:27:27,15.08840673,0.0001518,53.2174,171.8753,101.7341,258.3822,7.0801e-05,8.39e-06,0.0,0 STARLINK-3448,1 51728U 22016Q   24030.56073696  .00000839  00000-0  70801-4 0  9995,2 51728  53.2174 171.8753 0001518 101.7341 258.3822 15.08840673107450,6917.878,95.438,540.793,538.693,0.0
51728.0,STARLINK-3448,PAYLOAD,2024-01-30 18:13:36,15.0884244,0.0001438,53.2168,170.9831,96.555,263.5605,7.4703e-05,9.01e-06,0.0,0 STARLINK-3448,1 51728U 22016Q   24030.75945544  .00000901  00000-0  74703-4 0  9991,2 51728  53.2168 170.9831 0001438  96.5550 263.5605 15.08842440108614,6917.873,95.437,540.733,538.743,0.0
51728.0,STARLINK-3448,PAYLOAD,2024-01-31 18:04:24,15.08838509,0.0001456,53.2166,166.521,89.2193,270.8966,6.1368e-05,6.89e-06,0.0,0 STARLINK-3448,1 51728U 22016Q   24031.75305898  .00000689  00000-0  61368-4 0  9990,2 51728  53.2166 166.5210 0001456  89.2193 270.8966 15.08838509108764,6917.885,95.438,540.757,538.743,0.0
51728.0,STARLINK-3448,PAYLOAD,2024-02-01 16:19:48,15.08836935,0.0001463,53.2175,162.3574,89.1045,271.0114,2.7811e-05,1.55e-06,0.0,0 STARLINK-3448,1 51728U 22016Q   24032.68042284  .00000155  00000-0  27811-4 0  9993,2 51728  53.2175 162.3574 0001463  89.1045 271.0114 15.08836935107773,6917.89,95.438,540.767,538.743,0.0
51728.0,STARLINK-3448,PAYLOAD,2024-02-02 08:13:39,15.08843041,0.0001401,53.2173,159.3844,90.9356,269.1797,7.9386e-05,9.76e-06,0.0,0 STARLINK-3448,1 51728U 22016Q   24033.34281796  .00000976  00000-0  79386-4 0  9995,2 51728  53.2173 159.3844 0001401  90.9356 269.1797 15.08843041109003,6917.871,95.437,540.705,538.767,0.0
51728.0,STARLINK-3448,PAYLOAD,2024-02-02 14:35:11,15.08844821,0.0001479,53.2162,158.1992,75.1655,284.9501,0.00017494,2.498e-05,0.0,0 STARLINK-3448,1 51728U 22016Q   24033.60777468  .00002498  00000-0  17494-3 0  9992,2 51728  53.2162 158.1992 0001479  75.1655 284.9501 15.08844821107917,6917.866,95.437,540.754,538.708,0.0
51728.0,STARLINK-3448,PAYLOAD,2024-02-03 12:50:36,15.08840371,0.0001439,53.2159,154.0357,82.5748,277.5407,1.7759e-05,-5e-08,0.0,0 STARLINK-3448,1 51728U 22016Q   24034.53514209 -.00000005  00000-0  17759-4 0  9995,2 51728  53.2159 154.0357 0001439  82.5748 277.5407 15.08840371108059,6917.879,95.438,540.74,538.749,0.0
51728.0,STARLINK-3448,PAYLOAD,2024-02-03 14:25:59,15.08840218,0.0001437,53.2159,153.7384,82.0127,278.1028,1.3392e-05,-7.5e-07,0.0,0 STARLINK-3448,1 51728U 22016Q   24034.60138205 -.00000075  00000-0  13392-4 0  9997,2 51728  53.2159 153.7384 0001437  82.0127 278.1028 15.08840218109191,6917.88,95.438,540.739,538.751,0.0
51728.0,STARLINK-3448,PAYLOAD,2024-02-04 14:16:45,15.0884482,0.0001567,53.2179,149.2785,107.545,252.5713,3.5176e-05,2.72e-06,0.0,0 STARLINK-3448,1 51728U 22016Q   24035.59497603  .00000272  00000-0  35176-4 0  9998,2 51728  53.2179 149.2785 0001567 107.5450 252.5713 15.08844820108216,6917.866,95.437,540.815,538.647,0.0
51728.0,STARLINK-3448,PAYLOAD,2024-02-05 10:56:47,15.08836763,0.0001392,53.2187,145.4161,103.8285,256.2862,9.6104e-05,1.242e-05,0.0,0 STARLINK-3448,1 51728U 22016Q   24036.45609971  .00001242  00000-0  96104-4 0  9993,2 51728  53.2187 145.4161 0001392 103.8285 256.2862 15.08836763109474,6917.89,95.438,540.718,538.792,0.0
51728.0,STARLINK-3448,PAYLOAD,2024-02-05 14:07:32,15.08842832,0.0001452,53.2178,144.8192,103.4354,256.68,0.00012761,1.744e-05,0.0,0 STARLINK-3448,1 51728U 22016Q   24036.58857542  .00001744  00000-0  12761-3 0  9999,2 51728  53.2178 144.8192 0001452 103.4354 256.6800 15.08842832108368,6917.872,95.437,540.741,538.732,0.0
51728.0,STARLINK-3448,PAYLOAD,2024-02-06 10:47:34,15.08837488,0.0001516,53.2187,140.9549,109.8233,250.2922,2.4275e-05,9.8e-07,0.0,0 STARLINK-3448,1 51728U 22016Q   24037.44970349  .00000098  00000-0  24275-4 0  9991,2 51728  53.2187 140.9549 0001516 109.8233 250.2922 15.08837488109624,6917.888,95.438,540.802,538.704,0.0
51728.0,STARLINK-3448,PAYLOAD,2024-02-06 12:22:57,15.08838775,0.0001513,53.2188,140.6583,106.6806,253.4352,3.6169e-05,2.88e-06,0.0,0 STARLINK-3448,1 51728U 22016Q   24037.51594256  .00000288  00000-0  36169-4 0  9994,2 51728  53.2188 140.6583 0001513 106.6806 253.4352 15.08838775108506,6917.884,95.438,540.796,538.702,0.0
51728.0,STARLINK-3448,PAYLOAD,2024-02-07 12:13:44,15.08839759,0.0001322,53.2176,136.1946,99.3849,260.7293,1.0145e-05,-1.26e-06,0.0,0 STARLINK-3448,1 51728U 22016Q   24038.50954573 -.00000126  00000-0  10145-4 0  9994,2 51728  53.2176 136.1946 0001322  99.3849 260.7293 15.08839759109788,6917.881,95.438,540.661,538.832,0.0
